STARLINK-35880          
1 67187U 25303AA  25351.60835648 -.00002699  85337-5  00000+0 0  9995
2 67187  43.0100  69.0834 0011500 323.6500   9.4800 16.01284782    16
STARLINK-35675          
1 67188U 25303AB  25351.60835648 -.00002699  85337-5  00000+0 0  9996
2 67188  43.0100  69.0834 0011500 323.6500   9.4800 16.01284782    17
STARLINK-35889          
1 67189U 25303AC  25351.60835648 -.00002699  85337-5  00000+0 0  9997
2 67189  43.0100  69.0834 0011500 323.6500   9.4800 16.01284782    18
STARLINK-35888          
1 67190U 25303AD  25351.60835648 -.00002699  85337-5  00000+0 0  9999
2 67190  43.0100  69.0834 0011500 323.6500   9.4800 16.01284782    10
STARLINK-35716          
1 67191U 25303AE  25351.60835648 -.00002699  85337-5  00000+0 0  9990
2 67191  43.0100  69.0834 0011500 323.6500   9.4800 16.01284782    11
STARLINK-36182          
1 67192U 25304A   26009.25001157  .00098153  00000+0  22201-2 0  9991
2 67192  70.0001 330.4035 0003536 278.9835 290.3499 15.42661372  4852
STARLINK-36279          
1 67193U 25304B   26009.25926503  .00131739  00000+0  21062-2 0  9995
2 67193  69.9998 330.2649 0003229 271.1909  88.8908 15.52553770  4836
STARLINK-36284          
1 67194U 25304C   26009.25001157 -.02000639  00000+0 -45457-1 0  9996
2 67194  69.9998 330.3058 0003381 268.8957  25.6037 15.46198627  4883
STARLINK-36291          
1 67195U 25304D   26009.25857855  .00126376  00000+0  20221-2 0  9997
2 67195  69.9998 330.2620 0003379 273.4746  86.6054 15.52550392  4832
STARLINK-36239          
1 67196U 25304E   26009.25001157  .00112389  00000+0  25347-2 0  9997
2 67196  70.0001 330.3516 0002436 269.6690 344.5563 15.42689629  4885
STARLINK-36283          
1 67197U 25304F   26009.25754923  .00053242  00000+0  86226-3 0  9990
2 67197  69.9999 330.2581 0003157 264.9112  95.1714 15.52522818  4837
STARLINK-36267          
1 67198U 25304G   26009.25799168 -.00068368  00000+0 -11366-2 0  9990
2 67198  69.9997 330.2597 0003350 257.8796 102.2015 15.52061219  4801
